STARLINK-33672          
1 63326U 25057V   26169.34190389  .00007516  00000+0  28206-3 0  9999
2 63326  43.0006 182.1604 0004376 139.4792 220.6386 15.27613533 71171
STARLINK-33625          
1 63327U 25057W   26169.37356497  .00015739  00000+0  58010-3 0  9999
2 63327  42.9963 174.6311 0000837 283.0883  76.9875 15.27587495 71260
STARLINK-33699          
1 63328U 25057X   26169.36198493  .00011046  00000+0  41024-3 0  9993
2 63328  43.0005 174.5404 0001633 271.2641  88.8024 15.27585903 71224
STARLINK-33674          
1 63329U 25057Y   26169.43040775  .00021763  00000+0  79690-3 0  9998
2 63329  42.9985 181.9852 0000816 223.1388 136.9400 15.27626799 71182
YUNYAO-1 43             
1 63344U 25059A   26169.74170793  .00002320  00000+0  14243-3 0  9996
2 63344  97.6109 351.0975 0015414 144.6214 215.6042 15.11011148 68536
YUNYAO-1 44             
1 63345U 25059B   26169.72854807  .00002944  00000+0  17941-3 0  9990
2 63345  97.6097 351.0415 0017700 148.3814 211.8483 15.11038832 68535
YUNYAO-1 45             
1 63346U 25059C   26169.72022395  .00003153  00000+0  19196-3 0  9997
2 63346  97.6124 351.2169 0016757 147.7666 212.4592 15.11031790 68538
YUNYAO-1 46             
1 63347U 25059D   26169.75275137  .00002209  00000+0  13594-3 0  9992
2 63347  97.6120 351.1441 0013052 135.9736 224.2536 15.11010628 68535
YUNYAO-1 47             
1 63348U 25059E   26169.74844524  .00002263  00000+0  13827-3 0  9993
2 63348  97.6092 351.1416 0016813 148.5100 211.7140 15.11198673 68538
YUNYAO-1 48             
1 63349U 25059F   26169.72859545  .00002936  00000+0  17793-3 0  9994
2 63349  97.6102 351.2377 0016117 150.1964 210.0187 15.11263008 68530
LEMUR-2-UNTITLED-SC     
1 63351U 25061A   26169.34488097  .00003387  00000+0  19240-3 0  9998
2 63351  97.5636 144.6980 0016932 259.9891  99.9430 15.13483631 67767
LEMUR-2-ESPERANZA       
1 63352U 25061B   26169.65249644  .00002702  00000+0  15390-3 0  9998
2 63352  97.5645 145.0973 0016537 258.2498 101.6878 15.13578503 67817
LEMUR-2-KREMPEL-BRO2    
1 63353U 25061C   26169.67905238  .00003315  00000+0  18562-3 0  9994
2 63353  97.5692 145.6589 0017552 249.8907 110.0436 15.14015093 67835
LEMUR-2-THERMORAPTOR    
1 63354U 25061D   26169.66104090  .00003067  00000+0  17165-3 0  9993
2 63354  97.5696 145.7171 0017260 248.7005 111.2383 15.14095252 67830
LEMUR-2-NEUROSPICY      
1 63355U 25061E   26169.36827106  .00002921  00000+0  16326-3 0  9997
2 63355  97.5625 145.0511 0015043 253.4986 106.4593 15.14208053 67791
LEMUR-2-TILLINFINITY    
1 63356U 25061F   26169.40307881  .00003361  00000+0  18417-3 0  9998
2 63356  97.5609 145.3770 0016429 240.3326 119.6270 15.14794824 67824
LEMUR-2-KREMPEL-BRO1    
1 63357U 25061G   26169.37670503  .00002783  00000+0  15392-3 0  9995
2 63357  97.5612 145.2664 0017049 242.0323 117.9183 15.14599257 67811
LEMUR-2-LANGER2SPACE    
1 63358U 25061H   26169.46952757  .00003327  00000+0  18495-3 0  9992
2 63358  97.5615 145.1723 0014979 251.3473 108.6133 15.14297359 67818
TIANLIAN 2-04           
1 63361U 25062A   26169.41168899 -.00000140  00000+0  00000+0 0  9998
2 63361   4.3707 274.4237 0031676  10.4228 210.0696  1.00271823  4610
STARLINK-32840          
1 63363U 25063A   26169.63779558  .00031136  00000+0  92864-3 0  9996
2 63363  53.1611 300.1400 0000437  76.7126 283.3926 15.34406588 70241
STARLINK-32543          
1 63364U 25063B   26169.65673141  .00023085  00000+0  69239-3 0  9994
2 63364  53.1595 300.2524 0002222 295.1142  64.9630 15.34392956 70259
STARLINK-33741          
1 63365U 25063C   26169.68618786  .00017375  00000+0  52413-3 0  9993
2 63365  53.1606 300.4263 0001275  62.7909 297.3224 15.34402672 70260
STARLINK-33742          
1 63366U 25063D   26169.68049750  .00017352  00000+0  59641-3 0  9998
2 63366  53.1608 303.2296 0001172  82.3206 277.7928 15.30210557 70172
STARLINK-33734          
1 63367U 25063E   26169.63303325  .00023404  00000+0  79993-3 0  9992
2 63367  53.1594 313.5645 0000932  83.3898 276.7209 15.30195371 70021
STARLINK-33578          
1 63368U 25063F   26169.68408284  .00023424  00000+0  70194-3 0  9994
2 63368  53.1624 300.4132 0001953  44.7456 315.3704 15.34413425 70204
STARLINK-33626          
1 63369U 25063G   26169.60000788  .00028945  00000+0  86403-3 0  9997
2 63369  53.1598 300.5963 0001062  92.4932 267.6193 15.34417267 70207
STARLINK-33657          
1 63370U 25063H   26169.67987153  .00019083  00000+0  57430-3 0  9997
2 63370  53.1599 300.3836 0001027  80.8590 279.2529 15.34409980 70215
STARLINK-33648          
1 63371U 25063J   26169.69583340  .00020226  00000+0  66134-3 0  9992
2 63371  53.1613 303.3254 0001111  67.8359 292.2760 15.31721376 70228
STARLINK-33614          
1 63372U 25063K   26169.62525943  .00021192  00000+0  63645-3 0  9998
2 63372  53.1624 300.7531 0001328  82.7542 277.3611 15.34406332 70257
STARLINK-33617          
1 63373U 25063L   26169.63156270  .00019153  00000+0  57624-3 0  9997
2 63373  53.1614 300.7884 0001604  86.4603 273.6583 15.34416013 70203
