OBJECT_NAME,OBJECT_ID,EPOCH,MEAN_MOTION,ECCENTRICITY,INCLINATION,RA_OF_ASC_NODE,ARG_OF_PERICENTER,MEAN_ANOMALY,EPHEMERIS_TYPE,CLASSIFICATION_TYPE,NORAD_CAT_ID,ELEMENT_SET_NO,REV_AT_EPOCH,BSTAR,MEAN_MOTION_DOT,MEAN_MOTION_DDOT
STARLINK-33672,2025-057V,2026-06-18T08:12:20.496096,15.27613533,.0004376,43.0006,182.1604,139.4792,220.6386,0,U,63326,999,7117,.28206E-3,.7516E-4,0
STARLINK-33625,2025-057W,2026-06-18T08:57:56.013408,15.27587495,.0000837,42.9963,174.6311,283.0883,76.9875,0,U,63327,999,7126,.5801E-3,.15739E-3,0
STARLINK-33699,2025-057X,2026-06-18T08:41:15.497952,15.27585903,.0001633,43.0005,174.5404,271.2641,88.8024,0,U,63328,999,7122,.41024E-3,.11046E-3,0
STARLINK-33674,2025-057Y,2026-06-18T10:19:47.229600,15.27626799,.0000816,42.9985,181.9852,223.1388,136.9400,0,U,63329,999,7118,.7969E-3,.21763E-3,0
YUNYAO-1 43,2025-059A,2026-06-18T17:48:03.565152,15.11011148,.0015414,97.6109,351.0975,144.6214,215.6042,0,U,63344,999,6853,.14243E-3,.232E-4,0
YUNYAO-1 44,2025-059B,2026-06-18T17:29:06.553248,15.11038832,.00177,97.6097,351.0415,148.3814,211.8483,0,U,63345,999,6853,.17941E-3,.2944E-4,0
YUNYAO-1 45,2025-059C,2026-06-18T17:17:07.349280,15.11031790,.0016757,97.6124,351.2169,147.7666,212.4592,0,U,63346,999,6853,.19196E-3,.3153E-4,0
YUNYAO-1 46,2025-059D,2026-06-18T18:03:57.718368,15.11010628,.0013052,97.6120,351.1441,135.9736,224.2536,0,U,63347,999,6853,.13594E-3,.2209E-4,0
YUNYAO-1 47,2025-059E,2026-06-18T17:57:45.668736,15.11198673,.0016813,97.6092,351.1416,148.5100,211.7140,0,U,63348,999,6853,.13827E-3,.2263E-4,0
YUNYAO-1 48,2025-059F,2026-06-18T17:29:10.646880,15.11263008,.0016117,97.6102,351.2377,150.1964,210.0187,0,U,63349,999,6853,.17793E-3,.2936E-4,0
LEMUR-2-UNTITLED-SC,2025-061A,2026-06-18T08:16:37.715808,15.13483631,.0016932,97.5636,144.6980,259.9891,99.9430,0,U,63351,999,6776,.1924E-3,.3387E-4,0
LEMUR-2-ESPERANZA,2025-061B,2026-06-18T15:39:35.692416,15.13578503,.0016537,97.5645,145.0973,258.2498,101.6878,0,U,63352,999,6781,.1539E-3,.2702E-4,0
LEMUR-2-KREMPEL-BRO2,2025-061C,2026-06-18T16:17:50.125632,15.14015093,.0017552,97.5692,145.6589,249.8907,110.0436,0,U,63353,999,6783,.18562E-3,.3315E-4,0
LEMUR-2-THERMORAPTOR,2025-061D,2026-06-18T15:51:53.933760,15.14095252,.001726,97.5696,145.7171,248.7005,111.2383,0,U,63354,999,6783,.17165E-3,.3067E-4,0
LEMUR-2-NEUROSPICY,2025-061E,2026-06-18T08:50:18.619584,15.14208053,.0015043,97.5625,145.0511,253.4986,106.4593,0,U,63355,999,6779,.16326E-3,.2921E-4,0
LEMUR-2-TILLINFINITY,2025-061F,2026-06-18T09:40:26.009184,15.14794824,.0016429,97.5609,145.3770,240.3326,119.6270,0,U,63356,999,6782,.18417E-3,.3361E-4,0
LEMUR-2-KREMPEL-BRO1,2025-061G,2026-06-18T09:02:27.314592,15.14599257,.0017049,97.5612,145.2664,242.0323,117.9183,0,U,63357,999,6781,.15392E-3,.2783E-4,0
LEMUR-2-LANGER2SPACE,2025-061H,2026-06-18T11:16:07.182048,15.14297359,.0014979,97.5615,145.1723,251.3473,108.6133,0,U,63358,999,6781,.18495E-3,.3327E-4,0
TIANLIAN 2-04,2025-062A,2026-06-18T09:52:49.928736,1.00271823,.0031676,4.3707,274.4237,10.4228,210.0696,0,U,63361,999,461,0,-.14E-5,0
STARLINK-32840,2025-063A,2026-06-18T15:18:25.538112,15.34406588,.0000437,53.1611,300.1400,76.7126,283.3926,0,U,63363,999,7024,.92864E-3,.31136E-3,0
STARLINK-32543,2025-063B,2026-06-18T15:45:41.593824,15.34392956,.0002222,53.1595,300.2524,295.1142,64.9630,0,U,63364,999,7025,.69239E-3,.23085E-3,0
STARLINK-33741,2025-063C,2026-06-18T16:28:06.631104,15.34402672,.0001275,53.1606,300.4263,62.7909,297.3224,0,U,63365,999,7026,.52413E-3,.17375E-3,0
STARLINK-33742,2025-063D,2026-06-18T16:19:54.984000,15.30210557,.0001172,53.1608,303.2296,82.3206,277.7928,0,U,63366,999,7017,.59641E-3,.17352E-3,0
STARLINK-33734,2025-063E,2026-06-18T15:11:34.072800,15.30195371,.0000932,53.1594,313.5645,83.3898,276.7209,0,U,63367,999,7002,.79993E-3,.23404E-3,0
STARLINK-33578,2025-063F,2026-06-18T16:25:04.757376,15.34413425,.0001953,53.1624,300.4132,44.7456,315.3704,0,U,63368,999,7020,.70194E-3,.23424E-3,0
STARLINK-33626,2025-063G,2026-06-18T14:24:00.680832,15.34417267,.0001062,53.1598,300.5963,92.4932,267.6193,0,U,63369,999,7020,.86403E-3,.28945E-3,0
STARLINK-33657,2025-063H,2026-06-18T16:19:00.900192,15.34409980,.0001027,53.1599,300.3836,80.8590,279.2529,0,U,63370,999,7021,.5743E-3,.19083E-3,0
STARLINK-33648,2025-063J,2026-06-18T16:42:00.005760,15.31721376,.0001111,53.1613,303.3254,67.8359,292.2760,0,U,63371,999,7022,.66134E-3,.20226E-3,0
STARLINK-33614,2025-063K,2026-06-18T15:00:22.414752,15.34406332,.0001328,53.1624,300.7531,82.7542,277.3611,0,U,63372,999,7025,.63645E-3,.21192E-3,0
STARLINK-33617,2025-063L,2026-06-18T15:09:27.017280,15.34416013,.0001604,53.1614,300.7884,86.4603,273.6583,0,U,63373,999,7020,.57624E-3,.19153E-3,0
